ONEWEB-0212             
1 48791U 21045AA  25328.38752616  .00000146  00000+0  35393-3 0  9995
2 48791  87.8983 300.0429 0001891  80.7940 279.3404 13.15549529217507
ONEWEB-0227             
1 48792U 21045AB  25328.38672457  .00000229  00000+0  57354-3 0  9993
2 48792  87.8970 300.0553 0002046  83.7553 276.3810 13.15548138217455
ONEWEB-0226             
1 48793U 21045AC  25328.38039647  .00000219  00000+0  54782-3 0  9993
2 48793  87.8974 300.0652 0002207  89.7473 270.3910 13.15548088217422
ONEWEB-0224             
1 48794U 21045AD  25328.34395258 -.00000023  00000+0 -95695-4 0  9997
2 48794  87.8968 300.1081 0002463  62.2552 297.8827 13.15547577217345
ONEWEB-0233             
1 48795U 21045AE  25328.42461844 -.00000085  00000+0 -26008-3 0  9991
2 48795  87.8970 300.1023 0002268  78.4344 281.7041 13.15547944217377
ONEWEB-0190             
1 48796U 21045AF  25328.33602250 -.00000080  00000+0 -24614-3 0  9996
2 48796  87.8967 300.0820 0002711  84.5258 275.6181 13.15547253217430
ONEWEB-0236             
1 48797U 21045AG  25328.42951271  .00000039  00000+0  70050-4 0  9995
2 48797  87.8972 300.0744 0001806  81.0711 279.0623 13.15548294217336
ONEWEB-0248             
1 48798U 21045AH  25328.44219339  .00000069  00000+0  14944-3 0  9992
2 48798  87.8981 300.0337 0002436  76.1224 284.0177 13.15549251217490
ONEWEB-0225             
1 48799U 21045AJ  25328.38832009  .00000139  00000+0  33610-3 0  9990
2 48799  87.8974 300.0701 0002536  84.7155 275.4264 13.15548821217490
ONEWEB-0215             
1 48800U 21045AK  25328.43427127  .00000029  00000+0  42881-4 0  9999
2 48800  87.8990 300.0189 0002637  80.1205 280.0222 13.15548778217373
ONEWEB-0216             
1 48801U 21045AL  25328.36771628  .00000112  00000+0  26365-3 0  9991
2 48801  87.8975 300.0654 0001951  90.0047 270.1307 13.15547270217376
ONEWEB-0239             
1 48802U 21045AM  25328.37247417  .00000230  00000+0  57558-3 0  9996
2 48802  87.8976 300.0791 0002617  74.9617 285.1803 13.15548977217411
ONEWEB-0249             
1 48967U 21060A   25328.39228759 -.00000015  00000+0 -73370-4 0  9999
2 48967  87.9030 269.5603 0002076  79.7471 280.3894 13.16593329212667
ONEWEB-0250             
1 48968U 21060B   25328.33605044  .00000064  00000+0  11617-3 0  9997
2 48968  87.9023 267.9984 0002332  50.6260 309.5083 13.25818954213077
ONEWEB-0252             
1 48970U 21060D   25328.34793021  .00003789  00000+0  98689-2 0  9994
2 48970  87.8992 269.5692 0002380  80.0354 280.1045 13.16620285212701
ONEWEB-0253             
1 48971U 21060E   25328.33688271  .00000013  00000+0  50556-6 0  9996
2 48971  87.9029 269.5690 0002171  76.9876 283.1497 13.16594279212632
ONEWEB-0254             
1 48972U 21060F   25328.34638296 -.00000002  00000+0 -38021-4 0  9991
2 48972  87.9031 269.5582 0002303  73.4116 286.7267 13.16595139212632
