[{"OBJECT_NAME":"ONEWEB-0212","OBJECT_ID":"2021-045AA","EPOCH":"2025-11-24T09:18:02.260224","MEAN_MOTION":13.15549529,"ECCENTRICITY":0.0001891,"INCLINATION":87.8983,"RA_OF_ASC_NODE":300.0429,"ARG_OF_PERICENTER":80.794,"MEAN_ANOMALY":279.3404,"EPHEMERIS_TYPE":0,"CLASSIFICATION_TYPE":"U","NORAD_CAT_ID":48791,"ELEMENT_SET_NO":999,"REV_AT_EPOCH":21750,"BSTAR":0.00035393,"MEAN_MOTION_DOT":1.46e-6,"MEAN_MOTION_DDOT":0},{"OBJECT_NAME":"ONEWEB-0227","OBJECT_ID":"2021-045AB","EPOCH":"2025-11-24T09:16:53.002848","MEAN_MOTION":13.15548138,"ECCENTRICITY":0.0002046,"INCLINATION":87.897,"RA_OF_ASC_NODE":300.0553,"ARG_OF_PERICENTER":83.7553,"MEAN_ANOMALY":276.381,"EPHEMERIS_TYPE":0,"CLASSIFICATION_TYPE":"U","NORAD_CAT_ID":48792,"ELEMENT_SET_NO":999,"REV_AT_EPOCH":21745,"BSTAR":0.00057354,"MEAN_MOTION_DOT":2.29e-6,"MEAN_MOTION_DDOT":0},{"OBJECT_NAME":"ONEWEB-0226","OBJECT_ID":"2021-045AC","EPOCH":"2025-11-24T09:07:46.255008","MEAN_MOTION":13.15548088,"ECCENTRICITY":0.0002207,"INCLINATION":87.8974,"RA_OF_ASC_NODE":300.0652,"ARG_OF_PERICENTER":89.7473,"MEAN_ANOMALY":270.391,"EPHEMERIS_TYPE":0,"CLASSIFICATION_TYPE":"U","NORAD_CAT_ID":48793,"ELEMENT_SET_NO":999,"REV_AT_EPOCH":21742,"BSTAR":0.00054782,"MEAN_MOTION_DOT":2.19e-6,"MEAN_MOTION_DDOT":0},{"OBJECT_NAME":"ONEWEB-0224","OBJECT_ID":"2021-045AD","EPOCH":"2025-11-24T08:15:17.502912","MEAN_MOTION":13.15547577,"ECCENTRICITY":0.0002463,"INCLINATION":87.8968,"RA_OF_ASC_NODE":300.1081,"ARG_OF_PERICENTER":62.2552,"MEAN_ANOMALY":297.8827,"EPHEMERIS_TYPE":0,"CLASSIFICATION_TYPE":"U","NORAD_CAT_ID":48794,"ELEMENT_SET_NO":999,"REV_AT_EPOCH":21734,"BSTAR":-9.5695e-5,"MEAN_MOTION_DOT":-2.3e-7,"MEAN_MOTION_DDOT":0},{"OBJECT_NAME":"ONEWEB-0233","OBJECT_ID":"2021-045AE","EPOCH":"2025-11-24T10:11:27.033216","MEAN_MOTION":13.15547944,"ECCENTRICITY":0.0002268,"INCLINATION":87.897,"RA_OF_ASC_NODE":300.1023,"ARG_OF_PERICENTER":78.4344,"MEAN_ANOMALY":281.7041,"EPHEMERIS_TYPE":0,"CLASSIFICATION_TYPE":"U","NORAD_CAT_ID":48795,"ELEMENT_SET_NO":999,"REV_AT_EPOCH":21737,"BSTAR":-0.00026008,"MEAN_MOTION_DOT":-8.5e-7,"MEAN_MOTION_DDOT":0},{"OBJECT_NAME":"ONEWEB-0190","OBJECT_ID":"2021-045AF","EPOCH":"2025-11-24T08:03:52.344000","MEAN_MOTION":13.15547253,"ECCENTRICITY":0.0002711,"INCLINATION":87.8967,"RA_OF_ASC_NODE":300.082,"ARG_OF_PERICENTER":84.5258,"MEAN_ANOMALY":275.6181,"EPHEMERIS_TYPE":0,"CLASSIFICATION_TYPE":"U","NORAD_CAT_ID":48796,"ELEMENT_SET_NO":999,"REV_AT_EPOCH":21743,"BSTAR":-0.00024614,"MEAN_MOTION_DOT":-8.0e-7,"MEAN_MOTION_DDOT":0},{"OBJECT_NAME":"ONEWEB-0236","OBJECT_ID":"2021-045AG","EPOCH":"2025-11-24T10:18:29.898144","MEAN_MOTION":13.15548294,"ECCENTRICITY":0.0001806,"INCLINATION":87.8972,"RA_OF_ASC_NODE":300.0744,"ARG_OF_PERICENTER":81.0711,"MEAN_ANOMALY":279.0623,"EPHEMERIS_TYPE":0,"CLASSIFICATION_TYPE":"U","NORAD_CAT_ID":48797,"ELEMENT_SET_NO":999,"REV_AT_EPOCH":21733,"BSTAR":7.005e-5,"MEAN_MOTION_DOT":3.9e-7,"MEAN_MOTION_DDOT":0},{"OBJECT_NAME":"ONEWEB-0248","OBJECT_ID":"2021-045AH","EPOCH":"2025-11-24T10:36:45.508896","MEAN_MOTION":13.15549251,"ECCENTRICITY":0.0002436,"INCLINATION":87.8981,"RA_OF_ASC_NODE":300.0337,"ARG_OF_PERICENTER":76.1224,"MEAN_ANOMALY":284.0177,"EPHEMERIS_TYPE":0,"CLASSIFICATION_TYPE":"U","NORAD_CAT_ID":48798,"ELEMENT_SET_NO":999,"REV_AT_EPOCH":21749,"BSTAR":0.00014944,"MEAN_MOTION_DOT":6.9e-7,"MEAN_MOTION_DDOT":0},{"OBJECT_NAME":"ONEWEB-0225","OBJECT_ID":"2021-045AJ","EPOCH":"2025-11-24T09:19:10.855776","MEAN_MOTION":13.15548821,"ECCENTRICITY":0.0002536,"INCLINATION":87.8974,"RA_OF_ASC_NODE":300.0701,"ARG_OF_PERICENTER":84.7155,"MEAN_ANOMALY":275.4264,"EPHEMERIS_TYPE":0,"CLASSIFICATION_TYPE":"U","NORAD_CAT_ID":48799,"ELEMENT_SET_NO":999,"REV_AT_EPOCH":21749,"BSTAR":0.0003361,"MEAN_MOTION_DOT":1.39e-6,"MEAN_MOTION_DDOT":0},{"OBJECT_NAME":"ONEWEB-0215","OBJECT_ID":"2021-045AK","EPOCH":"2025-11-24T10:25:21.037728","MEAN_MOTION":13.15548778,"ECCENTRICITY":0.0002637,"INCLINATION":87.899,"RA_OF_ASC_NODE":300.0189,"ARG_OF_PERICENTER":80.1205,"MEAN_ANOMALY":280.0222,"EPHEMERIS_TYPE":0,"CLASSIFICATION_TYPE":"U","NORAD_CAT_ID":48800,"ELEMENT_SET_NO":999,"REV_AT_EPOCH":21737,"BSTAR":4.2881e-5,"MEAN_MOTION_DOT":2.9e-7,"MEAN_MOTION_DDOT":0},{"OBJECT_NAME":"ONEWEB-0216","OBJECT_ID":"2021-045AL","EPOCH":"2025-11-24T08:49:30.686592","MEAN_MOTION":13.1554727,"ECCENTRICITY":0.0001951,"INCLINATION":87.8975,"RA_OF_ASC_NODE":300.0654,"ARG_OF_PERICENTER":90.0047,"MEAN_ANOMALY":270.1307,"EPHEMERIS_TYPE":0,"CLASSIFICATION_TYPE":"U","NORAD_CAT_ID":48801,"ELEMENT_SET_NO":999,"REV_AT_EPOCH":21737,"BSTAR":0.00026365,"MEAN_MOTION_DOT":1.12e-6,"MEAN_MOTION_DDOT":0},{"OBJECT_NAME":"ONEWEB-0239","OBJECT_ID":"2021-045AM","EPOCH":"2025-11-24T08:56:21.768288","MEAN_MOTION":13.15548977,"ECCENTRICITY":0.0002617,"INCLINATION":87.8976,"RA_OF_ASC_NODE":300.0791,"ARG_OF_PERICENTER":74.9617,"MEAN_ANOMALY":285.1803,"EPHEMERIS_TYPE":0,"CLASSIFICATION_TYPE":"U","NORAD_CAT_ID":48802,"ELEMENT_SET_NO":999,"REV_AT_EPOCH":21741,"BSTAR":0.00057558,"MEAN_MOTION_DOT":2.3e-6,"MEAN_MOTION_DDOT":0},{"OBJECT_NAME":"ONEWEB-0249","OBJECT_ID":"2021-060A","EPOCH":"2025-11-24T09:24:53.647776","MEAN_MOTION":13.16593329,"ECCENTRICITY":0.0002076,"INCLINATION":87.903,"RA_OF_ASC_NODE":269.5603,"ARG_OF_PERICENTER":79.7471,"MEAN_ANOMALY":280.3894,"EPHEMERIS_TYPE":0,"CLASSIFICATION_TYPE":"U","NORAD_CAT_ID":48967,"ELEMENT_SET_NO":999,"REV_AT_EPOCH":21266,"BSTAR":-7.337e-5,"MEAN_MOTION_DOT":-1.5e-7,"MEAN_MOTION_DDOT":0},{"OBJECT_NAME":"ONEWEB-0250","OBJECT_ID":"2021-060B","EPOCH":"2025-11-24T08:03:54.758016","MEAN_MOTION":13.25818954,"ECCENTRICITY":0.0002332,"INCLINATION":87.9023,"RA_OF_ASC_NODE":267.9984,"ARG_OF_PERICENTER":50.626,"MEAN_ANOMALY":309.5083,"EPHEMERIS_TYPE":0,"CLASSIFICATION_TYPE":"U","NORAD_CAT_ID":48968,"ELEMENT_SET_NO":999,"REV_AT_EPOCH":21307,"BSTAR":0.00011617,"MEAN_MOTION_DOT":6.4e-7,"MEAN_MOTION_DDOT":0},{"OBJECT_NAME":"ONEWEB-0252","OBJECT_ID":"2021-060D","EPOCH":"2025-11-24T08:21:01.170144","MEAN_MOTION":13.16620285,"ECCENTRICITY":0.000238,"INCLINATION":87.8992,"RA_OF_ASC_NODE":269.5692,"ARG_OF_PERICENTER":80.0354,"MEAN_ANOMALY":280.1045,"EPHEMERIS_TYPE":0,"CLASSIFICATION_TYPE":"U","NORAD_CAT_ID":48970,"ELEMENT_SET_NO":999,"REV_AT_EPOCH":21270,"BSTAR":0.0098689,"MEAN_MOTION_DOT":3.789e-5,"MEAN_MOTION_DDOT":0},{"OBJECT_NAME":"ONEWEB-0253","OBJECT_ID":"2021-060E","EPOCH":"2025-11-24T08:05:06.666144","MEAN_MOTION":13.16594279,"ECCENTRICITY":0.0002171,"INCLINATION":87.9029,"RA_OF_ASC_NODE":269.569,"ARG_OF_PERICENTER":76.9876,"MEAN_ANOMALY":283.1497,"EPHEMERIS_TYPE":0,"CLASSIFICATION_TYPE":"U","NORAD_CAT_ID":48971,"ELEMENT_SET_NO":999,"REV_AT_EPOCH":21263,"BSTAR":5.0556e-7,"MEAN_MOTION_DOT":1.3e-7,"MEAN_MOTION_DDOT":0},{"OBJECT_NAME":"ONEWEB-0254","OBJECT_ID":"2021-060F","EPOCH":"2025-11-24T08:18:47.487744","MEAN_MOTION":13.16595139,"ECCENTRICITY":0.0002303,"INCLINATION":87.9031,"RA_OF_ASC_NODE":269.5582,"ARG_OF_PERICENTER":73.4116,"MEAN_ANOMALY":286.7267,"EPHEMERIS_TYPE":0,"CLASSIFICATION_TYPE":"U","NORAD_CAT_ID":48972,"ELEMENT_SET_NO":999,"REV_AT_EPOCH":21263,"BSTAR":-3.8021e-5,"MEAN_MOTION_DOT":-2.0e-8,"MEAN_MOTION_DDOT":0}]
